0 KALPANA 1 (METSAT 1)
1 27525U 02043A   13282.92517660  .00000000  00000-0  10000-3 0  7938
2 27525 003.8830 065.6915 0010613 197.7652 162.3396 01.00270268 40599
0 KALPANA 1 (METSAT 1)
1 27525U 02043A   13283.63955322 -.00000095  00000-0  00000+0 0  7938
2 27525 003.8835 065.6845 0010629 199.5215 058.4558 01.00272320 40594
0 KALPANA 1 (METSAT 1)
1 27525U 02043A   13286.78405225 -.00000101  00000-0  00000+0 0  7948
2 27525 003.8909 065.6561 0010630 198.2689 114.8457 01.00271747 40625
0 KALPANA 1 (METSAT 1)
1 27525U 02043A   13287.85116007 -.00000101  00000-0  00000+0 0  7955
2 27525 003.8932 065.6478 0010625 198.2262 140.1062 01.00271766 40635
0 KALPANA 1 (METSAT 1)
1 27525U 02043A   13288.85787816 -.00000100  00000-0  00000+0 0  7968
2 27525 003.8952 065.6406 0010603 198.1023 143.6462 01.00271741 40644
0 KALPANA 1 (METSAT 1)
1 27525U 02043A   13289.86428023 -.00000099  00000-0  00000+0 0  7970
2 27525 003.8973 065.6326 0010615 198.0869 146.9652 01.00271766 40653
0 KALPANA 1 (METSAT 1)
1 27525U 02043A   13290.89576986 -.00000097  00000-0  00000+0 0  7986
2 27525 003.8994 065.6238 0010634 198.1334 159.2791 01.00271780 40665
0 KALPANA 1 (METSAT 1)
1 27525U 02043A   13291.89897188 -.00000096  00000-0  00000+0 0  7997
2 27525 003.9014 065.6145 0010644 197.9522 161.6109 01.00271823 40672
0 KALPANA 1 (METSAT 1)
1 27525U 02043A   13293.93338503 -.00000092  00000-0  00000+0 0  8004
2 27525 003.9055 065.5955 0010654 198.0286 175.9462 01.00271879 40700
0 KALPANA 1 (METSAT 1)
1 27525U 02043A   13294.61786971 -.00000091  00000-0  00000+0 0  8016
2 27525 003.9060 065.5912 0010751 198.6629 062.4108 01.00272157 40701
0 KALPANA 1 (METSAT 1)
1 27525U 02043A   13295.72841770 -.00000090  00000-0  00000+0 0  8028
2 27525 003.9083 065.5814 0010759 198.6773 103.2991 01.00272192 40719
